NORAD_CAT_ID,OBJECT_NAME,OBJECT_TYPE,EPOCH,MEAN_MOTION,ECCENTRICITY,INCLINATION,RA_OF_ASC_NODE,ARG_OF_PERICENTER,MEAN_ANOMALY,BSTAR,MEAN_MOTION_DOT,MEAN_MOTION_DDOT,TLE_LINE0,TLE_LINE1,TLE_LINE2,SEMIMAJOR_AXIS,PERIOD,APOGEE,PERIGEE,DECAYED
56481.0,STARLINK-6222,PAYLOAD,2024-06-21 16:38:22,14.98315963,0.0003099,70.0008,262.7138,258.8961,101.185,-0.00014029,-1.766e-05,0.0,0 STARLINK-6222,1 56481U 23064AK  24173.69331989 -.00001766  00000-0 -14029-3 0  9995,2 56481  70.0008 262.7138 0003099 258.8961 101.1850 14.98315963 62339,6950.236,96.108,574.255,569.947,0.0
56481.0,STARLINK-6222,PAYLOAD,2024-06-22 13:28:06,14.98333601,0.0003361,69.9997,260.5231,266.1623,93.9152,-0.00010592,-1.357e-05,0.0,0 STARLINK-6222,1 56481U 23064AK  24174.56118951 -.00001357  00000-0 -10592-3 0  9991,2 56481  69.9997 260.5231 0003361 266.1623  93.9152 14.98333601 62468,6950.182,96.107,574.383,569.711,0.0
56481.0,STARLINK-6222,PAYLOAD,2024-06-22 15:04:14,14.98339258,0.0003399,69.9995,260.355,266.3702,93.7069,-0.00018626,-2.315e-05,0.0,0 STARLINK-6222,1 56481U 23064AK  24174.62794765 -.00002315  00000-0 -18626-3 0  9992,2 56481  69.9995 260.3550 0003399 266.3702  93.7069 14.98339258 62479,6950.164,96.106,574.392,569.667,0.0
56481.0,STARLINK-6222,PAYLOAD,2024-06-23 05:29:27,14.98321893,0.0003443,69.9996,258.8399,263.9439,96.1328,0.00016536,1.88e-05,0.0,0 STARLINK-6222,1 56481U 23064AK  24175.22878670  .00001880  00000-0  16536-3 0  9999,2 56481  69.9996 258.8399 0003443 263.9439  96.1328 14.98321893 62564,6950.218,96.108,574.476,569.69,0.0
56481.0,STARLINK-6222,PAYLOAD,2024-06-23 11:53:59,14.98324276,0.0003505,69.9993,258.1661,265.1629,94.913,0.0001483,1.677e-05,0.0,0 STARLINK-6222,1 56481U 23064AK  24175.49582685  .00001677  00000-0  14830-3 0  9995,2 56481  69.9993 258.1661 0003505 265.1629  94.9130 14.98324276 62600,6950.211,96.107,574.512,569.64,0.0
56481.0,STARLINK-6222,PAYLOAD,2024-06-23 13:30:07,14.98326093,0.0003467,69.9994,257.9979,264.5702,95.5061,0.00016737,1.904e-05,0.0,0 STARLINK-6222,1 56481U 23064AK  24175.56258528  .00001904  00000-0  16737-3 0  9990,2 56481  69.9994 257.9979 0003467 264.5702  95.5061 14.98326093 62252,6950.205,96.107,574.48,569.66,0.0
56481.0,STARLINK-6222,PAYLOAD,2024-06-23 15:06:15,14.98326477,0.0003454,69.9995,257.8297,264.0118,96.0647,0.00016889,1.923e-05,0.0,0 STARLINK-6222,1 56481U 23064AK  24175.62934509  .00001923  00000-0  16889-3 0  9996,2 56481  69.9995 257.8297 0003454 264.0118  96.0647 14.98326477 62620,6950.204,96.107,574.469,569.668,0.0
56481.0,STARLINK-6222,PAYLOAD,2024-06-24 05:31:27,14.98332258,0.0003399,69.9996,256.3149,262.1287,97.9487,4.8429e-05,4.85e-06,0.0,0 STARLINK-6222,1 56481U 23064AK  24176.23018516  .00000485  00000-0  48429-4 0  9993,2 56481  69.9996 256.3149 0003399 262.1287  97.9487 14.98332258 62711,6950.186,96.107,574.413,569.689,0.0
56481.0,STARLINK-6222,PAYLOAD,2024-06-24 13:32:08,14.98331863,0.000342,69.9996,255.4736,263.0009,97.0761,3.7476e-05,3.54e-06,0.0,0 STARLINK-6222,1 56481U 23064AK  24176.56398515  .00000354  00000-0  37476-4 0  9994,2 56481  69.9996 255.4736 0003420 263.0009  97.0761 14.98331863 62762,6950.187,96.107,574.429,569.675,0.0
56481.0,STARLINK-6222,PAYLOAD,2024-06-24 15:08:16,14.98332344,0.000342,69.9997,255.3053,263.1166,96.9604,4.1568e-05,4.03e-06,0.0,0 STARLINK-6222,1 56481U 23064AK  24176.63074461  .00000403  00000-0  41568-4 0  9995,2 56481  69.9997 255.3053 0003420 263.1166  96.9604 14.98332344 62779,6950.186,96.107,574.428,569.674,0.0
56481.0,STARLINK-6222,PAYLOAD,2024-06-25 05:33:29,14.98330687,0.0003357,69.9999,253.7906,264.7873,95.2903,-5.0832e-05,-7e-06,0.0,0 STARLINK-6222,1 56481U 23064AK  24177.23158772 -.00000700  00000-0 -50832-4 0  9996,2 56481  69.9999 253.7906 0003357 264.7873  95.2903 14.98330687 62863,6950.191,96.107,574.389,569.723,0.0
56481.0,STARLINK-6222,PAYLOAD,2024-06-25 11:58:01,14.98329114,0.0003378,69.9998,253.1174,263.1293,96.9481,-6.4185e-05,-8.59e-06,0.0,0 STARLINK-6222,1 56481U 23064AK  24177.49862877 -.00000859  00000-0 -64185-4 0  9993,2 56481  69.9998 253.1174 0003378 263.1293  96.9481 14.98329114 62902,6950.196,96.107,574.408,569.713,0.0
56481.0,STARLINK-6222,PAYLOAD,2024-06-25 13:34:09,14.98329306,0.0003372,69.9998,252.9492,263.0478,97.0297,-6.0523e-05,-8.15e-06,0.0,0 STARLINK-6222,1 56481U 23064AK  24177.56538853 -.00000815  00000-0 -60523-4 0  9999,2 56481  69.9998 252.9492 0003372 263.0478  97.0297 14.98329306 62551,6950.195,96.107,574.404,569.716,0.0
56481.0,STARLINK-6222,PAYLOAD,2024-06-25 15:10:17,14.98329076,0.0003372,69.9998,252.7808,263.1878,96.8898,-6.1971e-05,-8.32e-06,0.0,0 STARLINK-6222,1 56481U 23064AK  24177.63214872 -.00000832  00000-0 -61971-4 0  9996,2 56481  69.9998 252.7808 0003372 263.1878  96.8898 14.98329076 62924,6950.196,96.107,574.404,569.717,0.0
56481.0,STARLINK-6222,PAYLOAD,2024-06-26 05:35:29,14.98333315,0.0003478,69.9996,251.2658,268.8221,91.2539,-2.0196e-06,-1.17e-06,0.0,0 STARLINK-6222,1 56481U 23064AK  24178.23298379 -.00000117  00000-0 -20196-5 0  9998,2 56481  69.9996 251.2658 0003478 268.8221  91.2539 14.98333315 63013,6950.183,96.107,574.465,569.63,0.0
56481.0,STARLINK-6222,PAYLOAD,2024-06-26 12:00:01,14.98335605,0.0003418,69.9997,250.5923,268.0099,92.0669,3.0495e-05,2.71e-06,0.0,0 STARLINK-6222,1 56481U 23064AK  24178.50002071  .00000271  00000-0  30495-4 0  9991,2 56481  69.9997 250.5923 0003418 268.0099  92.0669 14.98335605 63051,6950.176,96.107,574.416,569.665,0.0
56481.0,STARLINK-6222,PAYLOAD,2024-06-27 12:02:03,14.98320435,0.0003693,69.9991,248.0679,267.3657,92.7079,-7.179e-05,-9.49e-06,0.0,0 STARLINK-6222,1 56481U 23064AK  24179.50143485 -.00000949  00000-0 -71790-4 0  9994,2 56481  69.9991 248.0679 0003693 267.3657  92.7079 14.98320435 63206,6950.222,96.108,574.654,569.521,0.0
56481.0,STARLINK-6222,PAYLOAD,2024-06-27 13:38:12,14.98319888,0.0003694,69.9991,247.8995,267.4443,92.6293,-7.6458e-05,-1.005e-05,0.0,0 STARLINK-6222,1 56481U 23064AK  24179.56819570 -.00001005  00000-0 -76458-4 0  9995,2 56481  69.9991 247.8995 0003694 267.4443  92.6293 14.98319888 63217,6950.224,96.108,574.657,569.522,0.0
56481.0,STARLINK-6222,PAYLOAD,2024-06-28 12:04:03,14.98338429,0.0003819,69.9984,245.5411,267.9845,92.0877,9.1312e-05,9.97e-06,0.0,0 STARLINK-6222,1 56481U 23064AK  24180.50281989  .00000997  00000-0  91312-4 0  9991,2 56481  69.9984 245.5411 0003819 267.9845  92.0877 14.98338429 63356,6950.167,96.106,574.686,569.378,0.0
56481.0,STARLINK-6222,PAYLOAD,2024-06-28 13:40:11,14.98340794,0.0003782,69.9986,245.3728,268.6358,91.4368,0.00011704,1.304e-05,0.0,0 STARLINK-6222,1 56481U 23064AK  24180.56957740  .00001304  00000-0  11704-3 0  9991,2 56481  69.9986 245.3728 0003782 268.6358  91.4368 14.98340794 63001,6950.16,96.106,574.653,569.396,0.0
56481.0,STARLINK-6222,PAYLOAD,2024-06-29 05:41:32,14.9832685,0.0003664,69.9987,243.6894,267.7597,92.3142,0.00011071,1.228e-05,0.0,0 STARLINK-6222,1 56481U 23064AK  24181.23718422  .00001228  00000-0  11071-3 0  9990,2 56481  69.9987 243.6894 0003664 267.7597  92.3142 14.98326850 63468,6950.203,96.107,574.614,569.521,0.0
56481.0,STARLINK-6222,PAYLOAD,2024-06-29 12:06:04,14.98329787,0.0003638,69.9986,243.0161,267.3514,92.7229,0.00013328,1.498e-05,0.0,0 STARLINK-6222,1 56481U 23064AK  24181.50422179  .00001498  00000-0  13328-3 0  9997,2 56481  69.9986 243.0161 0003638 267.3514  92.7229 14.98329787 63501,6950.194,96.107,574.587,569.53,0.0
56481.0,STARLINK-6222,PAYLOAD,2024-06-29 13:42:12,14.98330665,0.0003635,69.9986,242.8478,267.3827,92.6916,0.00013919,1.568e-05,0.0,0 STARLINK-6222,1 56481U 23064AK  24181.57098098  .00001568  00000-0  13919-3 0  9997,2 56481  69.9986 242.8478 0003635 267.3827  92.6916 14.98330665 63153,6950.191,96.107,574.582,569.529,0.0
56481.0,STARLINK-6222,PAYLOAD,2024-06-30 05:43:34,14.98326854,0.0003541,69.9986,241.1643,270.3493,89.726,-0.00011252,-1.435e-05,0.0,0 STARLINK-6222,1 56481U 23064AK  24182.23859101 -.00001435  00000-0 -11252-3 0  9994,2 56481  69.9986 241.1643 0003541 270.3493  89.7260 14.98326854 63613,6950.203,96.107,574.529,569.607,0.0
56481.0,STARLINK-6222,PAYLOAD,2024-06-30 10:31:58,14.9832717,0.0003519,69.9985,240.6587,268.0765,91.9991,-0.00011243,-1.434e-05,0.0,0 STARLINK-6222,1 56481U 23064AK  24182.43887087 -.00001434  00000-0 -11243-3 0  9999,2 56481  69.9985 240.6587 0003519 268.0765  91.9991 14.98327170 63645,6950.202,96.107,574.512,569.621,0.0
56481.0,STARLINK-6222,PAYLOAD,2024-06-30 13:44:14,14.98327666,0.0003567,69.9986,240.3223,268.2932,91.7818,-0.00012514,-1.586e-05,0.0,0 STARLINK-6222,1 56481U 23064AK  24182.57239116 -.00001586  00000-0 -12514-3 0  9998,2 56481  69.9986 240.3223 0003567 268.2932  91.7818 14.98327666 63300,6950.2,96.107,574.544,569.586,0.0
56481.0,STARLINK-6222,PAYLOAD,2024-06-30 21:44:54,14.98333005,0.0003639,69.9986,239.4812,274.3341,85.7402,-0.00014592,-1.834e-05,0.0,0 STARLINK-6222,1 56481U 23064AK  24182.90618832 -.00001834  00000-0 -14592-3 0  9995,2 56481  69.9986 239.4812 0003639 274.3341  85.7402 14.98333005 63356,6950.184,96.107,574.578,569.519,0.0
56481.0,STARLINK-6222,PAYLOAD,2024-07-01 05:45:34,14.98331889,0.000357,69.9983,238.6391,271.4029,88.6721,-6.0303e-06,-1.65e-06,0.0,0 STARLINK-6222,1 56481U 23064AK  24183.23998496 -.00000165  00000-0 -60303-5 0  9998,2 56481  69.9983 238.6391 0003570 271.4029  88.6721 14.98331889 63760,6950.187,96.107,574.533,569.571,0.0
56481.0,STARLINK-6222,PAYLOAD,2024-07-01 12:10:06,14.9833414,0.0003595,69.9983,237.966,271.603,88.4717,7.3146e-06,-6e-08,0.0,0 STARLINK-6222,1 56481U 23064AK  24183.50702281 -.00000006  00000-0  73146-5 0  9995,2 56481  69.9983 237.9660 0003595 271.6030  88.4717 14.98334140 63803,6950.18,96.107,574.544,569.546,0.0
56481.0,STARLINK-6222,PAYLOAD,2024-07-01 13:46:14,14.98334808,0.0003588,69.9984,237.7977,271.5865,88.4883,1.5535e-05,9.2e-07,0.0,0 STARLINK-6222,1 56481U 23064AK  24183.57378201  .00000092  00000-0  15535-4 0  9994,2 56481  69.9984 237.7977 0003588 271.5865  88.4883 14.98334808 63456,6950.178,96.107,574.537,569.549,0.0
